SatCatId,ObjectName,LaunchYear,OrbitalPeriod,LaunchMass,StatusCode,Inclination,Status,UcsData,OrbitClassEstimated,LaunchSiteCountry,Owner,UseType,Purpose,LaunchVehicleClass,TLE1,TLE2,MeanMotion,Eccentricity,OrbitClass
57329,STARLINK-6138,2023,95.84,-1.0,+,43.0,Active,0,LEO,USA,USA,Unknown,Unknown,Unknown,1 57329U 23099B   23276.07656200 -.00000824  00000+0 -45933-4 0  9998,2 57329  43.0030  37.6556 0001306 278.2357  81.8337 15.02535578 13188,15.02535578,0.0001306,LEO
57330,STARLINK-6212,2023,95.84,-1.0,+,43.0,Active,0,LEO,USA,USA,Unknown,Unknown,Unknown,1 57330U 23099C   23276.41560948  .00000038  00000+0  17898-4 0  9995,2 57330  43.0032  35.9044 0001081 261.4218  98.6502 15.02534515 13231,15.02534515,0.0001081,LEO
57331,STARLINK-6234,2023,95.84,-1.0,+,43.0,Active,0,LEO,USA,USA,Unknown,Unknown,Unknown,1 57331U 23099D   23276.48098073  .00010140  00000+0  76452-3 0  9993,2 57331  43.0026  35.5339 0001031 295.1360  64.9375 15.02542498 12989,15.02542498,0.0001031,LEO
57332,STARLINK-5831,2023,95.84,-1.0,+,43.0,Active,0,LEO,USA,USA,Unknown,Unknown,Unknown,1 57332U 23099E   23275.61455170 -.00001319  00000+0 -82596-4 0  9990,2 57332  43.0041  40.2121 0001456 279.5343  80.5335 15.02530892 13118,15.02530892,0.0001456,LEO
57333,STARLINK-5585,2023,95.84,-1.0,+,43.0,Active,0,LEO,USA,USA,Unknown,Unknown,Unknown,1 57333U 23099F   23276.41117141 -.00000013  00000+0  14081-4 0  9996,2 57333  43.0036  35.8676 0001155 274.8794  85.1917 15.02536893 13127,15.02536893,0.0001155,LEO
57334,STARLINK-5589,2023,95.84,-1.0,+,43.0,Active,0,LEO,USA,USA,Unknown,Unknown,Unknown,1 57334U 23099G   23275.74084296  .00001913  00000+0  15661-3 0  9999,2 57334  43.0031  39.4348 0001079 266.2820  93.7899 15.02540033 12392,15.02540033,0.0001079,LEO
57335,STARLINK-6316,2023,95.84,-1.0,+,43.0,Active,0,LEO,USA,USA,Unknown,Unknown,Unknown,1 57335U 23099H   23275.74195042 -.00001178  00000+0 -72133-4 0  9995,2 57335  43.0036  39.4463 0001118 270.2661  89.8053 15.02540105 12396,15.02540105,0.0001118,LEO
57336,STARLINK-6320,2023,95.89,-1.0,+,43.0,Active,0,LEO,USA,USA,Unknown,Unknown,Unknown,1 57336U 23099J   23275.72722806 -.00000167  00000+0  26379-5 0  9996,2 57336  43.0024  38.4729 0001047 278.1608  81.9115 15.01723164 12408,15.01723164,0.0001047,LEO
57337,STARLINK-6322,2023,95.84,-1.0,+,43.0,Active,0,LEO,USA,USA,Unknown,Unknown,Unknown,1 57337U 23099K   23276.06879469  .00026420  00000+0  19639-2 0  9990,2 57337  43.0034  37.5948 0000705 292.4955  67.5813 15.02527720 13189,15.0252772,7.05e-05,LEO
57338,STARLINK-6374,2023,95.84,-1.0,+,43.0,Active,0,LEO,USA,USA,Unknown,Unknown,Unknown,1 57338U 23099L   23276.39787068 -.00001372  00000+0 -86503-4 0  9997,2 57338  43.0036  35.7643 0000886 269.1386  90.9355 15.02533059 13232,15.02533059,8.86e-05,LEO
57339,STARLINK-6332,2023,95.84,-1.0,+,43.0,Active,0,LEO,USA,USA,Unknown,Unknown,Unknown,1 57339U 23099M   23276.46877224 -.00000573  00000+0 -27383-4 0  9993,2 57339  43.0035  35.4364 0000971 281.3681  78.7052 15.02533179 13240,15.02533179,9.71e-05,LEO
57340,STARLINK-6321,2023,95.84,-1.0,+,43.0,Active,0,LEO,USA,USA,Unknown,Unknown,Unknown,1 57340U 23099N   23276.05171315 -.00049470  00000+0 -37221-2 0  9997,2 57340  43.0002  37.4722 0001333 272.7964  87.2725 15.02034598 13183,15.02034598,0.0001333,LEO
57341,STARLINK-6377,2023,95.84,-1.0,+,43.0,Active,0,LEO,USA,USA,Unknown,Unknown,Unknown,1 57341U 23099P   23276.39119583 -.00001647  00000+0 -10684-3 0  9993,2 57341  43.0034  35.7180 0001026 274.9646  85.1079 15.02539639 13194,15.02539639,0.0001026,LEO
57342,STARLINK-6375,2023,95.84,-1.0,+,43.0,Active,0,LEO,USA,USA,Unknown,Unknown,Unknown,1 57342U 23099Q   23275.37182857 -.00001457  00000+0 -92836-4 0  9994,2 57342  43.0021  40.9667 0000948 281.8347  78.2389 15.02533644 12349,15.02533644,9.48e-05,LEO
57343,STARLINK-6379,2023,95.84,-1.0,+,43.0,Active,0,LEO,USA,USA,Unknown,Unknown,Unknown,1 57343U 23099R   23275.78845326 -.00000112  00000+0  67527-5 0  9993,2 57343  43.0040  38.9319 0001073 285.4585  74.6139 15.02535202 12408,15.02535202,0.0001073,LEO
57344,STARLINK-6380,2023,95.84,-1.0,+,43.0,Active,0,LEO,USA,USA,Unknown,Unknown,Unknown,1 57344U 23099S   23276.36344396 -.00001075  00000+0 -64499-4 0  9994,2 57344  43.0042  35.5068 0001668 281.4047  78.6608 15.02542036 13234,15.02542036,0.0001668,LEO
57345,STARLINK-6373,2023,95.84,-1.0,+,43.0,Active,0,LEO,USA,USA,Unknown,Unknown,Unknown,1 57345U 23099T   23276.17844134 -.00000552  00000+0 -25808-4 0  9999,2 57345  43.0028  36.6991 0000797 279.2753  80.7999 15.02537775 13205,15.02537775,7.97e-05,LEO
57346,STARLINK-6359,2023,95.84,-1.0,+,43.0,Active,0,LEO,USA,USA,Unknown,Unknown,Unknown,1 57346U 23099U   23276.36011692 -.00001325  00000+0 -83004-4 0  9997,2 57346  43.0057  35.4851 0001392 272.1014  87.9668 15.02535954 13236,15.02535954,0.0001392,LEO
57347,STARLINK-6378,2023,95.84,-1.0,+,43.0,Active,0,LEO,USA,USA,Unknown,Unknown,Unknown,1 57347U 23099V   23276.37453991 -.00000330  00000+0 -93590-5 0  9998,2 57347  43.0039  35.5904 0001200 281.9107  78.1601 15.02542152 13233,15.02542152,0.00012,LEO
57348,STARLINK-6372,2023,95.84,-1.0,+,43.0,Active,0,LEO,USA,USA,Unknown,Unknown,Unknown,1 57348U 23099W   23276.02217547 -.00000549  00000+0 -25613-4 0  9998,2 57348  43.0030  37.2465 0000993 274.7288  85.3441 15.02535444 13186,15.02535444,9.93e-05,LEO
57349,STARLINK-6376,2023,95.84,-1.0,+,43.0,Active,0,LEO,USA,USA,Unknown,Unknown,Unknown,1 57349U 23099X   23276.02661415 -.00001204  00000+0 -74097-4 0  9995,2 57349  43.0043  37.2798 0001351 278.1978  81.8712 15.02537263 13186,15.02537263,0.0001351,LEO
57350,STARLINK-6362,2023,95.71,-1.0,+,43.0,Active,0,LEO,USA,USA,Unknown,Unknown,Unknown,1 57350U 23099Y   23275.72064431  .00002705  00000+0  20458-3 0  9994,2 57350  43.0017  27.1137 0001054 286.6515  73.4212 15.04486337 12532,15.04486337,0.0001054,LEO
57351,STARLINK-6331,2023,95.84,-1.0,+,43.0,Active,0,LEO,USA,USA,Unknown,Unknown,Unknown,1 57351U 23099Z   23275.62553093 -.00001620  00000+0 -10486-3 0  9998,2 57351  43.0031  39.4295 0001389 267.9845  92.0838 15.02531461 12380,15.02531461,0.0001389,LEO
57352,STARLINK-6297,2023,95.71,-1.0,+,43.0,Active,0,LEO,USA,USA,Unknown,Unknown,Unknown,1 57352U 23099AA  23275.71066532 -.00002036  00000+0 -12851-3 0  9996,2 57352  43.0017  27.0390 0001281 274.2694  85.8002 15.04488484 12536,15.04488484,0.0001281,LEO
57353,STARLINK-6324,2023,95.84,-1.0,+,43.0,Active,0,LEO,USA,USA,Unknown,Unknown,Unknown,1 57353U 23099AB  23276.48641010  .00000027  00000+0  17057-4 0  9992,2 57353  43.0034  34.7101 0000986 281.3725  78.7006 15.02535496 13255,15.02535496,9.86e-05,LEO
57354,STARLINK-6293,2023,95.71,-1.0,+,43.0,Active,0,LEO,USA,USA,Unknown,Unknown,Unknown,1 57354U 23099AC  23275.70165541 -.00000252  00000+0 -31262-5 0  9994,2 57354  43.0024  26.9719 0000721 258.1604 101.9158 15.04481725 12532,15.04481725,7.21e-05,LEO
57355,STARLINK-6276,2023,95.71,-1.0,+,43.0,Active,0,LEO,USA,USA,Unknown,Unknown,Unknown,1 57355U 23099AD  23276.44549192 -.00001538  00000+0 -93482-4 0  9994,2 57355  43.0006  23.0925 0000860 277.4933  82.5812 15.04497954 13389,15.04497954,8.6e-05,LEO
57356,STARLINK-6355,2023,95.71,-1.0,+,43.0,Active,0,LEO,USA,USA,Unknown,Unknown,Unknown,1 57356U 23099AE  23276.16258729 -.00000663  00000+0 -32021-4 0  9997,2 57356  43.0021  24.4095 0001144 275.1890  84.8823 15.04484923 13247,15.04484923,0.0001144,LEO
57357,STARLINK-5600,2023,95.71,-1.0,+,43.0,Active,0,LEO,USA,USA,Unknown,Unknown,Unknown,1 57357U 23099AF  23275.70710786 -.00001884  00000+0 -11785-3 0  9992,2 57357  43.0020  27.0121 0000804 280.3332  79.7420 15.04489695 12535,15.04489695,8.04e-05,LEO
57358,STARLINK-6299,2023,95.71,-1.0,+,43.0,Active,0,LEO,USA,USA,Unknown,Unknown,Unknown,1 57358U 23099AG  23275.68947756 -.00002169  00000+0 -13792-3 0  9996,2 57358  43.0017  26.8788 0001078 280.2754  79.7968 15.04486817 13271,15.04486817,0.0001078,LEO
57359,STARLINK-6347,2023,95.71,-1.0,+,43.0,Active,0,LEO,USA,USA,Unknown,Unknown,Unknown,1 57359U 23099AH  23276.03838169 -.00000930  00000+0 -50810-4 0  9991,2 57359  43.0018  25.1982 0001155 281.4644  78.6069 15.04487686 13329,15.04487686,0.0001155,LEO
57360,STARLINK-6348,2023,95.71,-1.0,+,43.0,Active,0,LEO,USA,USA,Unknown,Unknown,Unknown,1 57360U 23099AJ  23276.14875916  .00002004  00000+0  15527-3 0  9993,2 57360  43.0020  24.3058 0001215 281.9176  78.1531 15.04506296 13341,15.04506296,0.0001215,LEO
57361,STARLINK-6340,2023,95.71,-1.0,+,43.0,Active,0,LEO,USA,USA,Unknown,Unknown,Unknown,1 57361U 23099AK  23275.69361112 -.00001404  00000+0 -84145-4 0  9999,2 57361  43.0012  26.9088 0001066 278.5186  81.5537 15.04485231 12530,15.04485231,0.0001066,LEO
57362,STARLINK-6343,2023,95.71,-1.0,+,43.0,Active,0,LEO,USA,USA,Unknown,Unknown,Unknown,1 57362U 23099AL  23275.74292984 -.00001749  00000+0 -10839-3 0  9996,2 57362  43.0020  26.4203 0000918 283.2636  76.8105 15.04485623 12546,15.04485623,9.18e-05,LEO
57363,STARLINK-6356,2023,95.71,-1.0,+,43.0,Active,0,LEO,USA,USA,Unknown,Unknown,Unknown,1 57363U 23099AM  23276.01847644  .00018153  00000+0  12870-2 0  9998,2 57363  43.0011  25.0479 0000806 311.3865  48.6909 15.04487355 13320,15.04487355,8.06e-05,LEO
57364,STARLINK-6338,2023,95.71,-1.0,+,43.0,Active,0,LEO,USA,USA,Unknown,Unknown,Unknown,1 57364U 23099AN  23276.40307476 -.00001017  00000+0 -56874-4 0  9993,2 57364  43.0006  22.7738 0001403 296.6149  63.4550 15.04493231 13384,15.04493231,0.0001403,LEO
57365,STARLINK-5007,2023,95.48,-1.0,+,43.0,Active,0,LEO,USA,USA,Unknown,Unknown,Unknown,1 57365U 23099AP  23276.46371974 -.00046299  00000+0 -29694-2 0  9993,2 57365  43.0001  22.3693 0001563 311.0261  49.0448 15.07938180 13184,15.0793818,0.0001563,LEO
57366,STARLINK-6174,2023,95.71,-1.0,+,43.0,Active,0,LEO,USA,USA,Unknown,Unknown,Unknown,1 57366U 23099AQ  23276.46125477 -.00000223  00000+0 -11268-5 0  9997,2 57366  43.0014  22.3500 0001044 274.8778  85.1946 15.04498060 13346,15.0449806,0.0001044,LEO
